OBJECT_NAME,OBJECT_ID,EPOCH,MEAN_MOTION,ECCENTRICITY,INCLINATION,RA_OF_ASC_NODE,ARG_OF_PERICENTER,MEAN_ANOMALY,EPHEMERIS_TYPE,CLASSIFICATION_TYPE,NORAD_CAT_ID,ELEMENT_SET_NO,REV_AT_EPOCH,BSTAR,MEAN_MOTION_DOT,MEAN_MOTION_DDOT
MEASAT 3D,2022-067B,2026-06-03T20:53:11.256288,1.00271821,.00014482,0.0276,345.7331,49.8162,261.5842,0,U,52904,999,1451,0,-.23E-5,0
YAOGAN-35 02A,2022-068A,2026-06-03T15:19:51.632256,15.24004386,.00106413,34.9906,223.8863,311.1539,48.8257,0,U,52907,999,21982,.31357948E-3,.7766E-4,0
YAOGAN-35 02B,2022-068B,2026-06-03T09:36:54.801792,15.58112383,.00046832,34.9940,149.6285,241.6080,118.4174,0,U,52908,999,22054,.11266548E-2,.88616E-3,0
GAOFEN-12 03,2022-069A,2026-06-03T22:29:30.259392,14.80013855,.00014832,97.8296,43.1409,112.8527,247.2842,0,U,52912,999,21265,.17143328E-3,.1246E-4,0
SES-22,2022-071A,2026-06-03T18:04:48.923328,1.00272539,.00014217,0.0136,328.8318,95.1796,320.3945,0,U,52933,999,738,0,.116E-5,0
DS-EO,2022-072A,2026-06-03T21:34:12.725760,15.13750050,.00028975,9.9973,283.2141,127.4906,232.5573,0,U,52935,999,21649,.29218627E-3,.6251E-4,0
POEM,2022-072E,2026-06-01T07:31:42.377088,15.23885095,.00240012,9.9502,191.3616,319.7387,40.1053,0,U,52939,999,21708,.28449685E-3,.8105E-4,0
WFOV (USA 332),2022-073A,2026-06-03T17:35:44.210112,1.00269883,.00018786,3.6764,78.6982,248.9652,307.7098,0,U,52940,999,1423,0,-.351E-5,0
COSMOS 2557 [GLONASS-K],2022-075A,2026-06-02T13:29:06.303264,2.13102309,.00101406,64.3077,315.0006,276.1929,83.6791,0,U,52984,999,3040,0,-.5E-6,0
STARLINK-4260,2022-076A,2026-06-02T02:25:53.906304,15.08836789,.00015799,53.1881,75.1625,65.7540,294.3617,0,U,52986,999,21558,.58250659E-4,.639E-5,0
STARLINK-4259,2022-076B,2026-06-02T01:47:27.689856,15.08858618,.00021012,53.1897,85.2877,140.3848,219.7297,0,U,52987,999,21544,-.20909029E-3,-.3616E-4,0
STARLINK-4291,2022-076C,2026-06-03T02:11:22.441344,15.08838294,.00013359,53.1870,70.7140,175.0492,185.0513,0,U,52988,999,21573,.58967643E-4,.651E-5,0
STARLINK-4293,2022-076D,2026-06-03T22:00:01.999584,15.37760476,.0001255,53.2230,70.2375,83.7240,133.5785,0,U,52989,999,574,.66275516E-2,.257718E-2,0
STARLINK-4286,2022-076E,2026-06-01T22:26:06.500544,15.08839654,.00010462,53.1880,85.9163,81.7754,278.3357,0,U,52990,999,21542,.56100897E-4,.605E-5,0
STARLINK-4285,2022-076F,2026-06-02T03:06:57.854592,15.08839984,.00012328,53.1880,85.0379,78.3849,281.7282,0,U,52991,999,21545,.5655464E-4,.612E-5,0
STARLINK-4269,2022-076G,2026-06-02T03:03:02.989152,15.08836146,.00013088,53.1906,85.0540,83.2045,276.9096,0,U,52992,999,21545,.28423473E-4,.164E-5,0
STARLINK-4256,2022-076J,2026-06-02T02:10:00.654240,15.08839284,.00017076,53.1880,75.2125,65.4032,294.7137,0,U,52994,999,21558,.16253224E-3,.23E-4,0
STARLINK-4296,2022-076K,2026-06-03T01:50:11.765184,15.08830809,.00020508,53.1846,70.7777,70.5259,289.5954,0,U,52995,999,21573,.12011523E-4,-.97E-6,0
STARLINK-4295,2022-076L,2026-06-01T04:27:49.575744,15.08834852,.00013084,53.1896,79.5595,78.8772,281.2366,0,U,52996,999,21544,.45997037E-4,.444E-5,0
STARLINK-4254,2022-076N,2026-06-02T01:43:28.992576,15.08833033,.00012566,53.1874,75.2107,92.7304,267.3831,0,U,52998,999,21558,.71184787E-4,.845E-5,0
STARLINK-4217,2022-076P,2026-06-01T04:52:53.117184,15.08838020,.00010175,53.1941,79.2001,76.9865,283.1240,0,U,52999,999,21545,.78350877E-4,.959E-5,0
STARLINK-4194,2022-076Q,2026-06-02T00:18:42.815520,15.08827587,.00015021,53.1877,75.5608,82.0914,278.0248,0,U,53000,999,21557,.49768904E-4,.504E-5,0
STARLINK-4190,2022-076R,2026-06-01T01:36:49.655232,15.08854079,.00014563,53.1927,79.8096,109.1993,250.9156,0,U,53001,999,21543,.25579199E-3,.3787E-4,0
STARLINK-4121,2022-076S,2026-06-01T01:58:01.395840,15.08828713,.00014926,53.1909,79.7449,64.2954,295.8192,0,U,53002,999,21543,-.323204E-4,-.802E-5,0
STARLINK-4255,2022-076T,2026-06-01T01:26:13.154208,15.08838987,.00014242,53.1930,79.8448,103.7736,256.3415,0,U,53003,999,21543,.94218522E-4,.1212E-4,0
STARLINK-4253,2022-076U,2026-06-01T01:47:24.716832,15.08852116,.0001301,53.1903,79.7780,81.6819,278.4320,0,U,53004,999,21543,-.2033335E-3,-.3524E-4,0
STARLINK-4288,2022-076V,2026-06-01T04:31:41.292768,15.08834782,.00011148,53.1925,79.2678,99.0476,261.0642,0,U,53005,999,21545,.87592896E-4,.1106E-4,0
STARLINK-4290,2022-076W,2026-06-01T04:42:17.461152,15.08838641,.00013377,53.1935,79.2321,70.0126,290.1010,0,U,53006,999,21545,.64502997E-4,.739E-5,0
STARLINK-4215,2022-076X,2026-06-02T02:36:29.330784,15.08839168,.00014409,53.1880,75.1315,58.8338,301.2795,0,U,53007,999,21559,.92106862E-4,.1178E-4,0
STARLINK-4275,2022-076Y,2026-06-02T01:06:24.304032,15.08841998,.00017617,53.1891,75.4092,69.7171,290.4011,0,U,53008,999,21558,.20209991E-4,.34E-6,0
