MEASAT 3D               
1 52904U 22067B   26154.87026917 -.00000230  00000+0  00000+0 0  9999
2 52904   0.0276 345.7331 0001448  49.8162 261.5842  1.00271821 14511
YAOGAN-35 02A           
1 52907U 22068A   26154.63879204  .00007766  00000+0  31358-3 0  9996
2 52907  34.9906 223.8863 0010641 311.1539  48.8257 15.24004386219822
YAOGAN-35 02B           
1 52908U 22068B   26154.40063428  .00088616  00000+0  11267-2 0  9994
2 52908  34.9940 149.6285 0004683 241.6080 118.4174 15.58112383220548
GAOFEN-12 03            
1 52912U 22069A   26154.93715578  .00001246  00000+0  17143-3 0  9992
2 52912  97.8296  43.1409 0001483 112.8527 247.2842 14.80013855212655
SES-22                  
1 52933U 22071A   26154.75334402  .00000116  00000+0  00000+0 0  9996
2 52933   0.0136 328.8318 0001421  95.1796 320.3945  1.00272539  7385
DS-EO                   
1 52935U 22072A   26154.89875840  .00006251  00000+0  29219-3 0  9993
2 52935   9.9973 283.2141 0002897 127.4906 232.5573 15.13750050216495
POEM                    
1 52939U 22072E   26152.31368492  .00008105  00000+0  28450-3 0  9998
2 52939   9.9502 191.3616 0024001 319.7387  40.1053 15.23885095217084
WFOV (USA 332)          
1 52940U 22073A   26154.73315058 -.00000351  00000+0  00000+0 0  9992
2 52940   3.6764  78.6982 0001878 248.9652 307.7098  1.00269883 14239
COSMOS 2557 [GLONASS-K] 
1 52984U 22075A   26153.56187851 -.00000050  00000+0  00000+0 0  9996
2 52984  64.3077 315.0006 0010140 276.1929  83.6791  2.13102309 30406
STARLINK-4260           
1 52986U 22076A   26153.10131836  .00000639  00000+0  58251-4 0  9999
2 52986  53.1881  75.1625 0001579  65.7540 294.3617 15.08836789215581
STARLINK-4259           
1 52987U 22076B   26153.07462604 -.00003616  00000+0 -20909-3 0  9994
2 52987  53.1897  85.2877 0002101 140.3848 219.7297 15.08858618215448
STARLINK-4291           
1 52988U 22076C   26154.09123196  .00000651  00000+0  58968-4 0  9999
2 52988  53.1870  70.7140 0001335 175.0492 185.0513 15.08838294215736
STARLINK-4293           
1 52989U 22076D   26154.91668981  .00257718  00000+0  66276-2 0  9994
2 52989  53.2230  70.2375 0001255  83.7240 133.5785 15.37760476  5745
STARLINK-4286           
1 52990U 22076E   26152.93479746  .00000605  00000+0  56101-4 0  9994
2 52990  53.1880  85.9163 0001046  81.7754 278.3357 15.08839654215425
STARLINK-4285           
1 52991U 22076F   26153.12983628  .00000612  00000+0  56555-4 0  9997
2 52991  53.1880  85.0379 0001232  78.3849 281.7282 15.08839984215454
STARLINK-4269           
1 52992U 22076G   26153.12711793  .00000164  00000+0  28423-4 0  9995
2 52992  53.1906  85.0540 0001308  83.2045 276.9096 15.08836146215457
STARLINK-4256           
1 52994U 22076J   26153.09028535  .00002300  00000+0  16253-3 0  9999
2 52994  53.1880  75.2125 0001707  65.4032 294.7137 15.08839284215585
STARLINK-4296           
1 52995U 22076K   26154.07652506 -.00000097  00000+0  12012-4 0  9992
2 52995  53.1846  70.7777 0002050  70.5259 289.5954 15.08830809215731
STARLINK-4295           
1 52996U 22076L   26152.18599046  .00000444  00000+0  45997-4 0  9995
2 52996  53.1896  79.5595 0001308  78.8772 281.2366 15.08834852215444
STARLINK-4254           
1 52998U 22076N   26153.07186334  .00000845  00000+0  71185-4 0  9991
2 52998  53.1874  75.2107 0001256  92.7304 267.3831 15.08833033215589
STARLINK-4217           
1 52999U 22076P   26152.20339256  .00000959  00000+0  78351-4 0  9997
2 52999  53.1941  79.2001 0001017  76.9865 283.1240 15.08838020215450
STARLINK-4194           
1 53000U 22076Q   26153.01299555  .00000504  00000+0  49769-4 0  9995
2 53000  53.1877  75.5608 0001502  82.0914 278.0248 15.08827587215576
STARLINK-4190           
1 53001U 22076R   26152.06724138  .00003787  00000+0  25579-3 0  9998
2 53001  53.1927  79.8096 0001456 109.1993 250.9156 15.08854079215435
STARLINK-4121           
1 53002U 22076S   26152.08196060 -.00000802  00000+0 -32320-4 0  9998
2 53002  53.1909  79.7449 0001492  64.2954 295.8192 15.08828713215439
STARLINK-4255           
1 53003U 22076T   26152.05987447  .00001212  00000+0  94219-4 0  9992
2 53003  53.1930  79.8448 0001424 103.7736 256.3415 15.08838987215430
STARLINK-4253           
1 53004U 22076U   26152.07459163 -.00003524  00000+0 -20333-3 0  9999
2 53004  53.1903  79.7780 0001301  81.6819 278.4320 15.08852116215439
STARLINK-4288           
1 53005U 22076V   26152.18867237  .00001106  00000+0  87593-4 0  9991
2 53005  53.1925  79.2678 0001114  99.0476 261.0642 15.08834782215455
STARLINK-4290           
1 53006U 22076W   26152.19603543  .00000739  00000+0  64503-4 0  9998
2 53006  53.1935  79.2321 0001337  70.0126 290.1010 15.08838641215450
STARLINK-4215           
1 53007U 22076X   26153.10867281  .00001178  00000+0  92107-4 0  9991
2 53007  53.1880  75.1315 0001440  58.8338 301.2795 15.08839168215596
STARLINK-4275           
1 53008U 22076Y   26153.04611463  .00000034  00000+0  20210-4 0  9990
2 53008  53.1891  75.4092 0001761  69.7171 290.4011 15.08841998215589
